start=new Date('2023-03-17T00:00:00.000Z').valueOf();
sats=[{"RA_OF_ASC_NODE":"279.7517","LAUNCH_DATE":"2021-05-26","OBJECT_TYPE":"PAYLOAD","MEAN_MOTION_DDOT":"0.0000000000000","CENTER_NAME":"EARTH","DECAY_DATE":null,"MEAN_ANOMALY":"268.0493","ELEMENT_SET_NO":"999","MEAN_ELEMENT_THEORY":"SGP4","SITE":"AFETR","INCLINATION":"53.0531","MEAN_MOTION_DOT":"0.00019316","COUNTRY_CODE":"US","EPHEMERIS_TYPE":"0","REF_FRAME":"TEME","ECCENTRICITY":"0.00011170","ARG_OF_PERICENTER":"92.0623","MEAN_MOTION":"15.06420033","FILE":"3862592","NORAD_CAT_ID":"48685","RCS_SIZE":"LARGE","GP_ID":"228282202","EPOCH":"2023-03-16T19:52:43.341024","PERIOD":"95.591","BSTAR":"0.00131140000000","REV_AT_EPOCH":"10029","SEMIMAJOR_AXIS":"6925.287","PERIAPSIS":"546.379","TLE_LINE1":"1 48685U 21044AZ  23075.82827941  .00019316  00000-0  13114-2 0  9992","APOAPSIS":"547.926","OBJECT_NAME":"STARLINK-2751","TLE_LINE2":"2 48685  53.0531 279.7517 0001117  92.0623 268.0493 15.06420033100298","OBJECT_ID":"2021-044AZ","CLASSIFICATION_TYPE":"U","TIME_SYSTEM":"UTC"},{"FILE":"3862592","PERIOD":"95.590","EPOCH":"2023-03-16T21:19:40.833984","GP_ID":"228281450","RCS_SIZE":"LARGE","NORAD_CAT_ID":"48686","MEAN_MOTION":"15.06441252","ECCENTRICITY":"0.00009850","REF_FRAME":"TEME","ARG_OF_PERICENTER":"77.6368","EPHEMERIS_TYPE":"0","INCLINATION":"53.0517","SITE":"AFETR","COUNTRY_CODE":"US","MEAN_MOTION_DOT":"0.00020431","OBJECT_TYPE":"PAYLOAD","LAUNCH_DATE":"2021-05-26","RA_OF_ASC_NODE":"284.7200","DECAY_DATE":null,"ELEMENT_SET_NO":"999","MEAN_ANOMALY":"282.4731","MEAN_ELEMENT_THEORY":"SGP4","CENTER_NAME":"EARTH","MEAN_MOTION_DDOT":"0.0000000000000","OBJECT_ID":"2021-044BA","TLE_LINE2":"2 48686  53.0517 284.7200 0000985  77.6368 282.4731 15.06441252100229","CLASSIFICATION_TYPE":"U","TIME_SYSTEM":"UTC","TLE_LINE1":"1 48686U 21044BA  23075.88866706  .00020431  00000-0  13850-2 0  9998","OBJECT_NAME":"STARLINK-2629","APOAPSIS":"547.769","PERIAPSIS":"546.405","SEMIMAJOR_AXIS":"6925.222","BSTAR":"0.00138500000000","REV_AT_EPOCH":"10022"},{"RCS_SIZE":"LARGE","NORAD_CAT_ID":"48687","GP_ID":"228281700","EPOCH":"2023-03-16T20:43:48.292032","PERIOD":"95.587","FILE":"3862592","EPHEMERIS_TYPE":"0","REF_FRAME":"TEME","ARG_OF_PERICENTER":"37.9869","ECCENTRICITY":"0.00006690","MEAN_MOTION":"15.06479922","MEAN_MOTION_DOT":"0.00019156","COUNTRY_CODE":"US","SITE":"AFETR","INCLINATION":"53.0527","MEAN_MOTION_DDOT":"0.0000000000000","CENTER_NAME":"EARTH","DECAY_DATE":null,"MEAN_ANOMALY":"322.1167","ELEMENT_SET_NO":"999","MEAN_ELEMENT_THEORY":"SGP4","RA_OF_ASC_NODE":"274.5500","LAUNCH_DATE":"2021-05-26","OBJECT_TYPE":"PAYLOAD","TIME_SYSTEM":"UTC","CLASSIFICATION_TYPE":"U","TLE_LINE2":"2 48687  53.0527 274.5500 0000669  37.9869 322.1167 15.06479922100360","OBJECT_ID":"2021-044BB","APOAPSIS":"547.432","OBJECT_NAME":"STARLINK-2627","TLE_LINE1":"1 48687U 21044BB  23075.86375338  .00019156  00000-0  12986-2 0  9994","SEMIMAJOR_AXIS":"6925.104","PERIAPSIS":"546.505","REV_AT_EPOCH":"10036","BSTAR":"0.00129860000000"},{"INCLINATION":"53.0525","SITE":"AFETR","MEAN_MOTION_DOT":"0.00017519","COUNTRY_CODE":"US","OBJECT_TYPE":"PAYLOAD","LAUNCH_DATE":"2021-05-26","RA_OF_ASC_NODE":"274.5358","DECAY_DATE":null,"MEAN_ELEMENT_THEORY":"SGP4","ELEMENT_SET_NO":"999","MEAN_ANOMALY":"283.8953","MEAN_MOTION_DDOT":"0.0000000000000","CENTER_NAME":"EARTH","FILE":"3862409","EPOCH":"2023-03-16T20:49:06.379680","PERIOD":"95.589","RCS_SIZE":"LARGE","NORAD_CAT_ID":"48688","GP_ID":"228256081","MEAN_MOTION":"15.06442764","EPHEMERIS_TYPE":"0","REF_FRAME":"TEME","ECCENTRICITY":"0.00008770","ARG_OF_PERICENTER":"76.2134","PERIAPSIS":"546.475","SEMIMAJOR_AXIS":"6925.217","BSTAR":"0.00119070000000","REV_AT_EPOCH":"10120","OBJECT_ID":"2021-044BC","TLE_LINE2":"2 48688  53.0525 274.5358 0000877  76.2134 283.8953 15.06442764101206","CLASSIFICATION_TYPE":"U","TIME_SYSTEM":"UTC","TLE_LINE1":"1 48688U 21044BC  23075.86743495  .00017519  00000-0  11907-2 0  9991","APOAPSIS":"547.690","OBJECT_NAME":"STARLINK-2742"},{"APOAPSIS":"547.955","OBJECT_NAME":"STARLINK-2617","TLE_LINE1":"1 48689U 21044BD  23075.87250036  .00009364  00000-0  64654-3 0  9994","CLASSIFICATION_TYPE":"U","TIME_SYSTEM":"UTC","OBJECT_ID":"2021-044BD","TLE_LINE2":"2 48689  53.0518 279.4836 0001112  76.8202 283.2911 15.06409232101132","REV_AT_EPOCH":"10113","BSTAR":"0.00064654000000","PERIAPSIS":"546.415","SEMIMAJOR_AXIS":"6925.320","MEAN_MOTION":"15.06409232","EPHEMERIS_TYPE":"0","ARG_OF_PERICENTER":"76.8202","ECCENTRICITY":"0.00011120","REF_FRAME":"TEME","PERIOD":"95.592","EPOCH":"2023-03-16T20:56:24.031104","NORAD_CAT_ID":"48689","RCS_SIZE":"LARGE","GP_ID":"228255822","FILE":"3862410","ELEMENT_SET_NO":"999","DECAY_DATE":null,"MEAN_ANOMALY":"283.2911","MEAN_ELEMENT_THEORY":"SGP4","MEAN_MOTION_DDOT":"0.0000000000000","CENTER_NAME":"EARTH","OBJECT_TYPE":"PAYLOAD","RA_OF_ASC_NODE":"279.4836","LAUNCH_DATE":"2021-05-26","COUNTRY_CODE":"US","MEAN_MOTION_DOT":"0.00009364","INCLINATION":"53.0518","SITE":"AFETR"},{"TLE_LINE2":"2 48690  53.0534 289.4825 0001285  97.1951 262.9184 15.06420946100151","OBJECT_ID":"2021-044BE","CLASSIFICATION_TYPE":"U","TIME_SYSTEM":"UTC","TLE_LINE1":"1 48690U 21044BE  23075.87894979  .00017845  00000-0  12132-2 0  9992","APOAPSIS":"548.039","OBJECT_NAME":"STARLINK-2740","SEMIMAJOR_AXIS":"6925.284","PERIAPSIS":"546.259","BSTAR":"0.00121320000000","REV_AT_EPOCH":"10015","FILE":"3862592","RCS_SIZE":"LARGE","NORAD_CAT_ID":"48690","GP_ID":"228280951","PERIOD":"95.591","EPOCH":"2023-03-16T21:05:41.261856","EPHEMERIS_TYPE":"0","ARG_OF_PERICENTER":"97.1951","REF_FRAME":"TEME","ECCENTRICITY":"0.00012850","MEAN_MOTION":"15.06420946","SITE":"AFETR","INCLINATION":"53.0534","COUNTRY_CODE":"US","MEAN_MOTION_DOT":"0.00017845","LAUNCH_DATE":"2021-05-26","RA_OF_ASC_NODE":"289.4825","OBJECT_TYPE":"PAYLOAD","MEAN_MOTION_DDOT":"0.0000000000000","CENTER_NAME":"EARTH","DECAY_DATE":null,"MEAN_ANOMALY":"262.9184","ELEMENT_SET_NO":"999","MEAN_ELEMENT_THEORY":"SGP4"},{"TLE_LINE1":"1 48691U 21044BF  23075.85177247  .00020103  00000-0  13629-2 0  9996","APOAPSIS":"547.790","OBJECT_NAME":"STARLINK-2750","OBJECT_ID":"2021-044BF","TLE_LINE2":"2 48691  53.0534 284.6036 0001043  85.7733 274.3375 15.06447561100225","TIME_SYSTEM":"UTC","CLASSIFICATION_TYPE":"U","BSTAR":"0.00136290000000","REV_AT_EPOCH":"10022","PERIAPSIS":"546.345","SEMIMAJOR_AXIS":"6925.203","MEAN_MOTION":"15.06447561","EPHEMERIS_TYPE":"0","REF_FRAME":"TEME","ECCENTRICITY":"0.00010430","ARG_OF_PERICENTER":"85.7733","FILE":"3862592","PERIOD":"95.589","EPOCH":"2023-03-16T20:26:33.141408","NORAD_CAT_ID":"48691","RCS_SIZE":"LARGE","GP_ID":"228281201","OBJECT_TYPE":"PAYLOAD","LAUNCH_DATE":"2021-05-26","RA_OF_ASC_NODE":"284.6036","DECAY_DATE":null,"MEAN_ANOMALY":"274.3375","ELEMENT_SET_NO":"999","MEAN_ELEMENT_THEORY":"SGP4","MEAN_MOTION_DDOT":"0.0000000000000","CENTER_NAME":"EARTH","INCLINATION":"53.0534","SITE":"AFETR","MEAN_MOTION_DOT":"0.00020103","COUNTRY_CODE":"US"},{"TLE_LINE1":"1 48692U 21044BG  23075.83704431  .00018847  00000-0  12793-2 0  9999","OBJECT_NAME":"STARLINK-2752","APOAPSIS":"547.661","TLE_LINE2":"2 48692  53.0527 284.7941 0000836  76.0390 284.0692 15.06442877100220","OBJECT_ID":"2021-044BG","CLASSIFICATION_TYPE":"U","TIME_SYSTEM":"UTC","BSTAR":"0.00127930000000","REV_AT_EPOCH":"10022","SEMIMAJOR_AXIS":"6925.217","PERIAPSIS":"546.503","ARG_OF_PERICENTER":"76.0390","ECCENTRICITY":"0.00008360","REF_FRAME":"TEME","EPHEMERIS_TYPE":"0","MEAN_MOTION":"15.06442877","FILE":"3862592","GP_ID":"228282452","NORAD_CAT_ID":"48692","RCS_SIZE":"LARGE","EPOCH":"2023-03-16T20:05:20.628384","PERIOD":"95.589","LAUNCH_DATE":"2021-05-26","RA_OF_ASC_NODE":"284.7941","OBJECT_TYPE":"PAYLOAD","CENTER_NAME":"EARTH","MEAN_MOTION_DDOT":"0.0000000000000","ELEMENT_SET_NO":"999","DECAY_DATE":null,"MEAN_ELEMENT_THEORY":"SGP4","MEAN_ANOMALY":"284.0692","SITE":"AFETR","INCLINATION":"53.0527","COUNTRY_CODE":"US","MEAN_MOTION_DOT":"0.00018847"},{"MEAN_MOTION":"15.06443436","REF_FRAME":"TEME","ECCENTRICITY":"0.00009020","ARG_OF_PERICENTER":"101.8676","EPHEMERIS_TYPE":"0","FILE":"3862592","PERIOD":"95.589","EPOCH":"2023-03-16T20:16:35.306976","GP_ID":"228282203","RCS_SIZE":"LARGE","NORAD_CAT_ID":"48693","OBJECT_TYPE":"PAYLOAD","LAUNCH_DATE":"2021-05-26","RA_OF_ASC_NODE":"289.6287","ELEMENT_SET_NO":"999","DECAY_DATE":null,"MEAN_ANOMALY":"258.2414","MEAN_ELEMENT_THEORY":"SGP4","CENTER_NAME":"EARTH","MEAN_MOTION_DDOT":"0.0000000000000","INCLINATION":"53.0522","SITE":"AFETR","COUNTRY_CODE":"US","MEAN_MOTION_DOT":"0.00014604","TLE_LINE1":"1 48693U 21044BH  23075.84485309  .00014604  00000-0  99611-3 0  9993","OBJECT_NAME":"STARLINK-2618","APOAPSIS":"547.705","OBJECT_ID":"2021-044BH","TLE_LINE2":"2 48693  53.0522 289.6287 0000902 101.8676 258.2414 15.06443436100150","TIME_SYSTEM":"UTC","CLASSIFICATION_TYPE":"U","BSTAR":"0.00099611000000","REV_AT_EPOCH":"10015","PERIAPSIS":"546.456","SEMIMAJOR_AXIS":"6925.215"},{"SEMIMAJOR_AXIS":"6925.198","PERIAPSIS":"546.270","REV_AT_EPOCH":"10093","BSTAR":"0.00131970000000","TIME_SYSTEM":"UTC","CLASSIFICATION_TYPE":"U","TLE_LINE2":"2 48694  53.0529 294.1753 0001146  84.8619 275.2501 15.06449039100932","OBJECT_ID":"2021-044BJ","APOAPSIS":"547.857","OBJECT_NAME":"STARLINK-2748","TLE_LINE1":"1 48694U 21044BJ  23075.94570519  .00019456  00000-0  13197-2 0  9997","MEAN_MOTION_DOT":"0.00019456","COUNTRY_CODE":"US","SITE":"AFETR","INCLINATION":"53.0529","MEAN_MOTION_DDOT":"0.0000000000000","CENTER_NAME":"EARTH","MEAN_ELEMENT_THEORY":"SGP4","DECAY_DATE":null,"ELEMENT_SET_NO":"999","MEAN_ANOMALY":"275.2501","RA_OF_ASC_NODE":"294.1753","LAUNCH_DATE":"2021-05-26","OBJECT_TYPE":"PAYLOAD","RCS_SIZE":"LARGE","NORAD_CAT_ID":"48694","GP_ID":"228259540","EPOCH":"2023-03-16T22:41:48.928416","PERIOD":"95.589","FILE":"3862544","EPHEMERIS_TYPE":"0","ECCENTRICITY":"0.00011460","ARG_OF_PERICENTER":"84.8619","REF_FRAME":"TEME","MEAN_MOTION":"15.06449039"}];
